OBJECT_NAME,OBJECT_ID,EPOCH,MEAN_MOTION,ECCENTRICITY,INCLINATION,RA_OF_ASC_NODE,ARG_OF_PERICENTER,MEAN_ANOMALY,EPHEMERIS_TYPE,CLASSIFICATION_TYPE,NORAD_CAT_ID,ELEMENT_SET_NO,REV_AT_EPOCH,BSTAR,MEAN_MOTION_DOT,MEAN_MOTION_DDOT
ASTRA 1M,2008-057A,2026-06-27T07:27:53.524224,1.00269592,.0004949,0.3223,82.6342,26.6304,297.5299,0,U,33436,999,4583,0,.132E-5,0
EUTELSAT HOTBIRD 13C,2008-065A,2026-06-27T12:16:00.721344,1.00273109,.0003514,2.9762,79.0770,14.3530,315.8843,0,U,33459,999,4744,0,-.274E-5,0
EXPRESS-AM44,2009-007A,2026-06-27T10:44:38.701824,1.00271914,.0004313,3.4901,78.2756,9.6522,337.7732,0,U,33595,999,5238,0,-.81E-6,0
NSS-9,2009-008A,2026-06-27T11:34:03.568800,1.00270807,.0002466,1.2880,82.5692,3.4171,186.1912,0,U,33749,999,6362,0,.82E-6,0
TELSTAR 11N,2009-009A,2026-06-27T12:19:37.873056,1.00269126,.0002778,0.0269,19.0573,78.4726,325.4533,0,U,34111,999,4634,0,0,0
WGS F2 (USA 204),2009-017A,2026-06-27T11:04:07.948704,1.00270139,.0000479,0.0182,13.9494,94.5976,30.5727,0,U,34713,999,4572,0,.8E-6,0
SES-7 (PROTOSTAR 2),2009-027A,2026-06-27T11:33:38.601792,1.00271093,.0000355,0.0386,67.0757,336.6379,153.5283,0,U,34941,999,6273,0,-.333E-5,0
MEASAT-3A,2009-032A,2026-06-27T11:49:38.537760,1.00272090,.0003305,0.0303,322.0509,125.9425,165.0268,0,U,35362,999,813,0,-.99E-6,0
GOES 14,2009-033A,2026-06-27T13:13:38.502912,1.00107968,.0002272,1.7164,82.9275,19.9063,147.0156,0,U,35491,999,669,0,-.316E-5,0
FM-5,2009-034A,2026-06-27T06:57:48.907296,1.00271914,.0000848,0.0265,288.2413,62.7122,302.7387,0,U,35493,999,4674,0,-.188E-5,0
TERRESTAR-1,2009-035A,2026-06-27T11:13:50.631168,1.00273272,.0002661,5.1813,48.7914,42.0367,242.2030,0,U,35496,999,6223,0,-.5E-6,0
ASIASAT 5,2009-042A,2026-06-27T13:48:02.532384,1.00268250,.0001364,0.0151,45.4397,40.8657,136.8603,0,U,35696,999,6181,0,-.295E-5,0
JCSAT-12 (JCSAT-RA),2009-044A,2026-06-27T13:13:38.502912,1.00271100,.0000234,0.0118,346.0486,220.5308,39.5269,0,U,35755,999,6171,0,-.316E-5,0
OPTUS D3,2009-044B,2026-06-27T09:20:38.719392,1.00277373,.0002988,0.8808,268.6537,186.1364,117.0124,0,U,35756,999,6166,0,-.132E-5,0
NIMIQ 5,2009-050A,2026-06-27T12:09:38.829888,1.00270849,.0002979,0.0365,274.5952,172.7225,298.0085,0,U,35873,999,6144,0,-.245E-5,0
AMAZONAS 2,2009-054A,2026-06-27T12:09:53.807328,1.00270784,.0003551,1.8417,82.9296,15.6207,287.5451,0,U,35942,999,6128,0,-.249E-5,0
COMSATBW-1,2009-054B,2026-06-27T11:05:45.292992,1.00271676,.0003175,0.0615,135.8847,321.2536,47.8799,0,U,35943,999,6141,0,.36E-6,0
NSS-12,2009-058A,2026-06-27T11:04:00.462144,1.00270667,.0005085,0.0744,276.8529,148.1013,73.6164,0,U,36032,999,6102,0,.83E-6,0
THOR 6,2009-058B,2026-06-27T07:22:09.074208,1.00269388,.0002131,0.0139,1.9189,103.8475,279.3624,0,U,36033,999,6110,0,0,0
INTELSAT 14 (IS-14),2009-064A,2026-06-27T10:34:54.636096,1.00272282,.000269,0.0162,24.7651,71.4938,293.0235,0,U,36097,999,6070,0,-.262E-5,0
EUTELSAT 36B,2009-065A,2026-06-27T04:11:32.572320,1.00273041,.00058373,0.5160,81.2334,13.1344,294.2885,0,U,36101,999,6080,0,.123E-5,0
INTELSAT 15 (IS-15),2009-067A,2026-06-27T11:11:59.696160,1.00271440,.0002562,0.0147,48.1121,52.9112,67.7012,0,U,36106,999,4133,0,-.173E-5,0
WGS F3 (USA 211),2009-068A,2026-06-27T08:25:38.730144,1.00270908,.0000569,0.3149,85.7948,4.9828,181.1027,0,U,36108,999,4669,0,.76E-6,0
DIRECTV 12,2009-075A,2026-06-27T12:01:02.156160,1.00271477,.0000386,0.0102,106.7179,17.4887,228.9365,0,U,36131,999,4665,0,-.92E-6,0
BEIDOU-2 G1,2010-001A,2026-06-27T13:38:27.821184,1.00273115,.000233,4.3178,60.3818,308.7106,251.6748,0,U,36287,999,6027,0,-.272E-5,0
SDO,2010-005A,2026-06-27T06:56:38.621760,1.00270710,.0001538,34.6720,86.1888,47.5663,143.6115,0,U,36395,999,6016,0,-.95E-6,0
INTELSAT 16 (IS-16),2010-006A,2026-06-27T12:08:38.927040,1.00272132,.0002429,0.0144,38.9699,71.0735,271.5340,0,U,36397,999,5975,0,-.233E-5,0
EWS-G2 (GOES 15),2010-008A,2026-06-27T11:05:52.782144,1.00268134,.0005374,1.3054,82.7103,43.6300,19.2459,0,U,36411,999,5974,0,.31E-6,0
ECHOSTAR 14,2010-010A,2026-06-27T11:56:25.099008,1.00270878,.0002482,0.0233,287.4077,168.7162,239.6904,0,U,36499,999,4665,0,.12E-6,0
SES-1,2010-016A,2026-06-27T12:01:32.109312,1.00271883,.0002972,0.0274,305.5441,147.3505,262.0954,0,U,36516,999,5913,0,-.103E-5,0
ASTRA 3B,2010-021A,2026-06-27T12:37:07.580352,1.00268873,.0004234,1.4957,83.4351,9.9920,34.9997,0,U,36581,999,5897,0,.147E-5,0
COMSATBW-2,2010-021B,2026-06-27T12:34:13.974240,1.00268766,.0002612,0.0512,182.4514,279.4659,15.5295,0,U,36582,999,5906,0,.1E-5,0
