ASTRA 1M                
1 33436U 08057A   26178.31103616  .00000132  00000+0  00000+0 0  9998
2 33436   0.3223  82.6342 0004949  26.6304 297.5299  1.00269592 45830
EUTELSAT HOTBIRD 13C    
1 33459U 08065A   26178.51111946 -.00000274  00000+0  00000+0 0  9997
2 33459   2.9762  79.0770 0003514  14.3530 315.8843  1.00273109 47445
EXPRESS-AM44            
1 33595U 09007A   26178.44767016 -.00000081  00000+0  00000+0 0  9998
2 33595   3.4901  78.2756 0004313   9.6522 337.7732  1.00271914 52389
NSS-9                   
1 33749U 09008A   26178.48198575  .00000082  00000+0  00000+0 0  9992
2 33749   1.2880  82.5692 0002466   3.4171 186.1912  1.00270807 63623
TELSTAR 11N             
1 34111U 09009A   26178.51363279  .00000000  00000+0  00000+0 0  9996
2 34111   0.0269  19.0573 0002778  78.4726 325.4533  1.00269126 46341
WGS F2 (USA 204)        
1 34713U 09017A   26178.46120311  .00000080  00000+0  00000+0 0  9993
2 34713   0.0182  13.9494 0000479  94.5976  30.5727  1.00270139 45726
SES-7 (PROTOSTAR 2)     
1 34941U 09027A   26178.48169678 -.00000333  00000+0  00000+0 0  9990
2 34941   0.0386  67.0757 0000355 336.6379 153.5283  1.00271093 62730
MEASAT-3A               
1 35362U 09032A   26178.49280715 -.00000099  00000+0  00000+0 0  9990
2 35362   0.0303 322.0509 0003305 125.9425 165.0268  1.00272090  8138
GOES 14                 
1 35491U 09033A   26178.55114008 -.00000316  00000+0  00000+0 0  9994
2 35491   1.7164  82.9275 0002272  19.9063 147.0156  1.00107968  6694
FM-5                    
1 35493U 09034A   26178.29014939 -.00000188  00000+0  00000+0 0  9997
2 35493   0.0265 288.2413 0000848  62.7122 302.7387  1.00271914 46743
TERRESTAR-1             
1 35496U 09035A   26178.46794712 -.00000050  00000+0  00000+0 0  9992
2 35496   5.1813  48.7914 0002661  42.0367 242.2030  1.00273272 62237
ASIASAT 5               
1 35696U 09042A   26178.57502931 -.00000295  00000+0  00000+0 0  9995
2 35696   0.0151  45.4397 0001364  40.8657 136.8603  1.00268250 61811
JCSAT-12 (JCSAT-RA)     
1 35755U 09044A   26178.55114008 -.00000316  00000+0  00000+0 0  9999
2 35755   0.0118 346.0486 0000234 220.5308  39.5269  1.00271100 61718
OPTUS D3                
1 35756U 09044B   26178.38933703 -.00000132  00000+0  00000+0 0  9998
2 35756   0.8808 268.6537 0002988 186.1364 117.0124  1.00277373 61660
NIMIQ 5                 
1 35873U 09050A   26178.50669942 -.00000245  00000+0  00000+0 0  9995
2 35873   0.0365 274.5952 0002979 172.7225 298.0085  1.00270849 61447
AMAZONAS 2              
1 35942U 09054A   26178.50687277 -.00000249  00000+0  00000+0 0  9991
2 35942   1.8417  82.9296 0003551  15.6207 287.5451  1.00270784 61285
COMSATBW-1              
1 35943U 09054B   26178.46232978  .00000036  00000+0  00000+0 0  9994
2 35943   0.0615 135.8847 0003175 321.2536  47.8799  1.00271676 61418
NSS-12                  
1 36032U 09058A   26178.46111646  .00000083  00000+0  00000+0 0  9998
2 36032   0.0744 276.8529 0005085 148.1013  73.6164  1.00270667 61021
THOR 6                  
1 36033U 09058B   26178.30704947  .00000000  00000+0  00000+0 0  9993
2 36033   0.0139   1.9189 0002131 103.8475 279.3624  1.00269388 61101
INTELSAT 14 (IS-14)     
1 36097U 09064A   26178.44091014 -.00000262  00000+0  00000+0 0  9990
2 36097   0.0162  24.7651 0002690  71.4938 293.0235  1.00272282 60701
EUTELSAT 36B            
1 36101U 09065A   26178.17468255  .00000123  00000+0  00000+0 0  9997
2 36101   0.5160  81.2334 0005837  13.1344 294.2885  1.00273041 60805
INTELSAT 15 (IS-15)     
1 36106U 09067A   26178.46666315 -.00000173  00000+0  00000+0 0  9999
2 36106   0.0147  48.1121 0002562  52.9112  67.7012  1.00271440 41335
WGS F3 (USA 211)        
1 36108U 09068A   26178.35114271  .00000076  00000+0  00000+0 0  9990
2 36108   0.3149  85.7948 0000569   4.9828 181.1027  1.00270908 46691
DIRECTV 12              
1 36131U 09075A   26178.50071940 -.00000092  00000+0  00000+0 0  9995
2 36131   0.0102 106.7179 0000386  17.4887 228.9365  1.00271477 46657
BEIDOU-2 G1             
1 36287U 10001A   26178.56837756 -.00000272  00000+0  00000+0 0  9999
2 36287   4.3178  60.3818 0002330 308.7106 251.6748  1.00273115 60278
SDO                     
1 36395U 10005A   26178.28933590 -.00000095  00000+0  00000+0 0  9998
2 36395  34.6720  86.1888 0001538  47.5663 143.6115  1.00270710 60169
INTELSAT 16 (IS-16)     
1 36397U 10006A   26178.50600610 -.00000233  00000+0  00000+0 0  9994
2 36397   0.0144  38.9699 0002429  71.0735 271.5340  1.00272132 59759
EWS-G2 (GOES 15)        
1 36411U 10008A   26178.46241646  .00000031  00000+0  00000+0 0  9993
2 36411   1.3054  82.7103 0005374  43.6300  19.2459  1.00268134 59746
ECHOSTAR 14             
1 36499U 10010A   26178.49751272  .00000012  00000+0  00000+0 0  9995
2 36499   0.0233 287.4077 0002482 168.7162 239.6904  1.00270878 46650
SES-1                   
1 36516U 10016A   26178.50106608 -.00000103  00000+0  00000+0 0  9992
2 36516   0.0274 305.5441 0002972 147.3505 262.0954  1.00271883 59139
ASTRA 3B                
1 36581U 10021A   26178.52578218  .00000147  00000+0  00000+0 0  9999
2 36581   1.4957  83.4351 0004234   9.9920  34.9997  1.00268873 58972
COMSATBW-2              
1 36582U 10021B   26178.52377285  .00000100  00000+0  00000+0 0  9990
2 36582   0.0512 182.4514 0002612 279.4659  15.5295  1.00268766 59065
